{"type": "FeatureCollection", "features": [ {"type": "Feature", "properties": {"norad_id": 66527, "name": "STARLINK-35935", "group": "last-30-days", "lat": 20.096746333333744, "lon": 62.14927005179203, "alt_km": 412.5250309226858, "timestamp": "2025-12-15T07:02:36.372777+00:00", "meta": {"OBJECT_NAME": "STARLINK-35935", "OBJECT_ID": "2025-265M", "EPOCH": "2025-12-14T13:54:31.915584", "MEAN_MOTION": 15.50619732, "ECCENTRICITY": 0.0002511, "INCLINATION": 43.0052, "RA_OF_ASC_NODE": 43.2118, "ARG_OF_PERICENTER": 259.0654, "MEAN_ANOMALY": 100.9924, "EPHEMERIS_TYPE": 0, "CLASSIFICATION_TYPE": "U", "NORAD_CAT_ID": 66527, "ELEMENT_SET_NO": 999, "REV_AT_EPOCH": 404, "BSTAR": 0.00090006936, "MEAN_MOTION_DOT": 0.00052898, "MEAN_MOTION_DDOT": 0}, "tle": {"line1": "1 66527U 25265M   25348.57953606  .00052898  00000+0  90007-3 0  9999", "line2": "2 66527  43.0052  43.2118 0002511 259.0654 100.9924 15.50619732  4043"}}, "geometry": {"type": "Point", "coordinates": [62.14927005179203, 20.096746333333744]}}, {"type": "Feature", "properties": {"norad_id": 66528, "name": "STARLINK-35928", "group": "last-30-days", "lat": 21.273249891548797, "lon": 63.72307989404454, "alt_km": 412.09370682638655, "timestamp": "2025-12-15T07:02:36.372787+00:00", "meta": {"OBJECT_NAME": "STARLINK-35928", "OBJECT_ID": "2025-265N", "EPOCH": "2025-12-14T10:48:33.377184", "MEAN_MOTION": 15.50607105, "ECCENTRICITY": 0.00020354, "INCLINATION": 43.0013, "RA_OF_ASC_NODE": 43.9604, "ARG_OF_PERICENTER": 254.0147, "MEAN_ANOMALY": 106.0489, "EPHEMERIS_TYPE": 0, "CLASSIFICATION_TYPE": "U", "NORAD_CAT_ID": 66528, "ELEMENT_SET_NO": 999, "REV_AT_EPOCH": 402, "BSTAR": 0.0014303393, "MEAN_MOTION_DOT": 0.00084568, "MEAN_MOTION_DDOT": 0}, "tle": {"line1": "1 66528U 25265N   25348.45038631  .00084568  00000+0  14303-2 0  9992", "line2": "2 66528  43.0013  43.9604 0002035 254.0147 106.0489 15.50607105  4023"}}, "geometry": {"type": "Point", "coordinates": [63.72307989404454, 21.273249891548797]}}, {"type": "Feature", "properties": {"norad_id": 66529, "name": "STARLINK-35933", "group": "last-30-days", "lat": -42.65829263400784, "lon": -42.101909419005864, "alt_km": 446.63658004102035, "timestamp": "2025-12-15T07:02:36.372797+00:00", "meta": {"OBJECT_NAME": "STARLINK-35933", "OBJECT_ID": "2025-265P", "EPOCH": "2025-12-14T20:00:06.000192", "MEAN_MOTION": 15.40704266, "ECCENTRICITY": 0.00011683, "INCLINATION": 43.0008, "RA_OF_ASC_NODE": 41.9599, "ARG_OF_PERICENTER": 266.1936, "MEAN_ANOMALY": 335.2837, "EPHEMERIS_TYPE": 0, "CLASSIFICATION_TYPE": "U", "NORAD_CAT_ID": 66529, "ELEMENT_SET_NO": 999, "REV_AT_EPOCH": 533, "BSTAR": -0.0003231732, "MEAN_MOTION_DOT": -0.0001378, "MEAN_MOTION_DDOT": 0}, "tle": {"line1": "1 66529U 25265P   25348.83340278 -.00013780  00000+0 -32317-3 0  9994", "line2": "2 66529  43.0008  41.9599 0001168 266.1936 335.2837 15.40704266  5338"}}, "geometry": {"type": "Point", "coordinates": [-42.101909419005864, -42.65829263400784]}}, {"type": "Feature", "properties": {"norad_id": 66530, "name": "STARLINK-35961", "group": "last-30-days", "lat": -35.69430677920167, "lon": -11.190527174845252, "alt_km": 446.2942436537587, "timestamp": "2025-12-15T07:02:36.372807+00:00", "meta": {"OBJECT_NAME": "STARLINK-35961", "OBJECT_ID": "2025-265Q", "EPOCH": "2025-12-14T20:00:06.000192", "MEAN_MOTION": 15.40709974, "ECCENTRICITY": 0.00011983, "INCLINATION": 43.0007, "RA_OF_ASC_NODE": 41.8998, "ARG_OF_PERICENTER": 284.487, "MEAN_ANOMALY": 341.8584, "EPHEMERIS_TYPE": 0, "CLASSIFICATION_TYPE": "U", "NORAD_CAT_ID": 66530, "ELEMENT_SET_NO": 999, "REV_AT_EPOCH": 533, "BSTAR": -0.00032025945, "MEAN_MOTION_DOT": -0.00013662, "MEAN_MOTION_DDOT": 0}, "tle": {"line1": "1 66530U 25265Q   25348.83340278 -.00013662  00000+0 -32026-3 0  9992", "line2": "2 66530  43.0007  41.8998 0001198 284.4870 341.8584 15.40709974  5337"}}, "geometry": {"type": "Point", "coordinates": [-11.190527174845252, -35.69430677920167]}}, {"type": "Feature", "properties": {"norad_id": 66531, "name": "STARLINK-35960", "group": "last-30-days", "lat": -22.39994333195514, "lon": 12.935764230695318, "alt_km": 445.371510873626, "timestamp": "2025-12-15T07:02:36.372817+00:00", "meta": {"OBJECT_NAME": "STARLINK-35960", "OBJECT_ID": "2025-265R", "EPOCH": "2025-12-14T20:00:06.000192", "MEAN_MOTION": 15.40700755, "ECCENTRICITY": 0.0001368, "INCLINATION": 43.0007, "RA_OF_ASC_NODE": 41.8383, "ARG_OF_PERICENTER": 298.2782, "MEAN_ANOMALY": 352.9702, "EPHEMERIS_TYPE": 0, "CLASSIFICATION_TYPE": "U", "NORAD_CAT_ID": 66531, "ELEMENT_SET_NO": 999, "REV_AT_EPOCH": 533, "BSTAR": -0.000210836, "MEAN_MOTION_DOT": -9.1e-05, "MEAN_MOTION_DDOT": 0}, "tle": {"line1": "1 66531U 25265R   25348.83340278 -.00009100  00000+0 -21084-3 0  9997", "line2": "2 66531  43.0007  41.8383 0001368 298.2782 352.9702 15.40700755  5333"}}, "geometry": {"type": "Point", "coordinates": [12.935764230695318, -22.39994333195514]}}, {"type": "Feature", "properties": {"norad_id": 66532, "name": "STARLINK-35914", "group": "last-30-days", "lat": -6.204058404191684, "lon": 32.42799612740817, "alt_km": 444.7473915211467, "timestamp": "2025-12-15T07:02:36.372828+00:00", "meta": {"OBJECT_NAME": "STARLINK-35914", "OBJECT_ID": "2025-265S", "EPOCH": "2025-12-14T20:00:06.000192", "MEAN_MOTION": 15.41117049, "ECCENTRICITY": 0.00012073, "INCLINATION": 43.0003, "RA_OF_ASC_NODE": 41.7793, "ARG_OF_PERICENTER": 289.0681, "MEAN_ANOMALY": 26.8817, "EPHEMERIS_TYPE": 0, "CLASSIFICATION_TYPE": "U", "NORAD_CAT_ID": 66532, "ELEMENT_SET_NO": 999, "REV_AT_EPOCH": 533, "BSTAR": -0.016540467, "MEAN_MOTION_DOT": -0.00652296, "MEAN_MOTION_DDOT": 0}, "tle": {"line1": "1 66532U 25265S   25348.83340278 -.00652296  00000+0 -16540-1 0  9997", "line2": "2 66532  43.0003  41.7793 0001207 289.0681  26.8817 15.41117049  5335"}}, "geometry": {"type": "Point", "coordinates": [32.42799612740817, -6.204058404191684]}}, {"type": "Feature", "properties": {"norad_id": 66533, "name": "STARLINK-35707", "group": "last-30-days", "lat": 27.147950280711473, "lon": 72.3887568406768, "alt_km": 410.6002495112889, "timestamp": "2025-12-15T07:02:36.372840+00:00", "meta": {"OBJECT_NAME": "STARLINK-35707", "OBJECT_ID": "2025-265T", "EPOCH": "2025-12-13T20:51:14.754528", "MEAN_MOTION": 15.50564385, "ECCENTRICITY": 0.00024505, "INCLINATION": 42.9992, "RA_OF_ASC_NODE": 47.3369, "ARG_OF_PERICENTER": 286.6299, "MEAN_ANOMALY": 73.4292, "EPHEMERIS_TYPE": 0, "CLASSIFICATION_TYPE": "U", "NORAD_CAT_ID": 66533, "ELEMENT_SET_NO": 999, "REV_AT_EPOCH": 393, "BSTAR": 0.0012610474, "MEAN_MOTION_DOT": 0.00074308, "MEAN_MOTION_DDOT": 0}, "tle": {"line1": "1 66533U 25265T   25347.86892077  .00074308  00000+0  12610-2 0  9994", "line2": "2 66533  42.9992  47.3369 0002450 286.6299  73.4292 15.50564385  3939"}}, "geometry": {"type": "Point", "coordinates": [72.3887568406768, 27.147950280711473]}}, {"type": "Feature", "properties": {"norad_id": 66534, "name": "STARLINK-35976", "group": "last-30-days", "lat": 28.11915819949797, "lon": 73.99014962362786, "alt_km": 411.0959113418976, "timestamp": "2025-12-15T07:02:36.372852+00:00", "meta": {"OBJECT_NAME": "STARLINK-35976", "OBJECT_ID": "2025-265U", "EPOCH": "2025-12-14T10:45:35.575488", "MEAN_MOTION": 15.50624158, "ECCENTRICITY": 0.00022398, "INCLINATION": 43.0001, "RA_OF_ASC_NODE": 43.9438, "ARG_OF_PERICENTER": 260.0804, "MEAN_ANOMALY": 99.9803, "EPHEMERIS_TYPE": 0, "CLASSIFICATION_TYPE": "U", "NORAD_CAT_ID": 66534, "ELEMENT_SET_NO": 999, "REV_AT_EPOCH": 402, "BSTAR": 0.0015599964, "MEAN_MOTION_DOT": 0.00092415, "MEAN_MOTION_DDOT": 0}, "tle": {"line1": "1 66534U 25265U   25348.44832842  .00092415  00000+0  15600-2 0  9995", "line2": "2 66534  43.0001  43.9438 0002239 260.0804  99.9803 15.50624158  4022"}}, "geometry": {"type": "Point", "coordinates": [73.99014962362786, 28.11915819949797]}}, {"type": "Feature", "properties": {"norad_id": 66535, "name": "STARLINK-35514", "group": "last-30-days", "lat": 29.290530547034827, "lon": 76.00348302611908, "alt_km": 410.45971028463464, "timestamp": "2025-12-15T07:02:36.372863+00:00", "meta": {"OBJECT_NAME": "STARLINK-35514", "OBJECT_ID": "2025-265V", "EPOCH": "2025-12-14T10:45:04.309920", "MEAN_MOTION": 15.50620505, "ECCENTRICITY": 0.00016527, "INCLINATION": 43.0008, "RA_OF_ASC_NODE": 43.9405, "ARG_OF_PERICENTER": 257.8771, "MEAN_ANOMALY": 102.1904, "EPHEMERIS_TYPE": 0, "CLASSIFICATION_TYPE": "U", "NORAD_CAT_ID": 66535, "ELEMENT_SET_NO": 999, "REV_AT_EPOCH": 402, "BSTAR": 0.0022722023, "MEAN_MOTION_DOT": 0.0013549, "MEAN_MOTION_DDOT": 0}, "tle": {"line1": "1 66535U 25265V   25348.44796655  .00135490  00000+0  22722-2 0  9991", "line2": "2 66535  43.0008  43.9405 0001652 257.8771 102.1904 15.50620505  4020"}}, "geometry": {"type": "Point", "coordinates": [76.00348302611908, 29.290530547034827]}}, {"type": "Feature", "properties": {"norad_id": 66536, "name": "STARLINK-35640", "group": "last-30-days", "lat": 30.260117760201975, "lon": 77.749892896829, "alt_km": 410.44857424146176, "timestamp": "2025-12-15T07:02:36.372873+00:00", "meta": {"OBJECT_NAME": "STARLINK-35640", "OBJECT_ID": "2025-265W", "EPOCH": "2025-12-14T10:44:34.667808", "MEAN_MOTION": 15.50612598, "ECCENTRICITY": 0.00014008, "INCLINATION": 43, "RA_OF_ASC_NODE": 43.9374, "ARG_OF_PERICENTER": 251.2373, "MEAN_ANOMALY": 108.8335, "EPHEMERIS_TYPE": 0, "CLASSIFICATION_TYPE": "U", "NORAD_CAT_ID": 66536, "ELEMENT_SET_NO": 999, "REV_AT_EPOCH": 402, "BSTAR": 0.0016654559, "MEAN_MOTION_DOT": 0.00098721, "MEAN_MOTION_DDOT": 0}, "tle": {"line1": "1 66536U 25265W   25348.44762347  .00098721  00000+0  16655-2 0  9996", "line2": "2 66536  43.0000  43.9374 0001400 251.2373 108.8335 15.50612598  4029"}}, "geometry": {"type": "Point", "coordinates": [77.749892896829, 30.260117760201975]}}]}